start=new Date('2022-05-27T00:00:00.000Z').valueOf();
sats=[{"MEAN_MOTION_DOT":"-0.00719835","SITE":"AFETR","SEMIMAJOR_AXIS":"6812.774","GP_ID":"204630091","TIME_SYSTEM":"UTC","ELEMENT_SET_NO":"999","MEAN_ELEMENT_THEORY":"SGP4","OBJECT_ID":"2022-022AM","NORAD_CAT_ID":"51887","ECCENTRICITY":"0.00014410","APOAPSIS":"435.621","MEAN_MOTION_DDOT":"0.0000000000000","BSTAR":"-0.01687100000000","COUNTRY_CODE":"US","PERIAPSIS":"433.657","FILE":"3466271","EPOCH":"2022-05-26T22:00:00.999936","DECAY_DATE":null,"TLE_LINE2":"2 51887  53.2175  89.4546 0001441  56.8443 217.5640 15.43891479  1300","MEAN_MOTION":"15.43891479","CLASSIFICATION_TYPE":"U","INCLINATION":"53.2175","LAUNCH_DATE":"2022-03-03","REV_AT_EPOCH":"130","TLE_LINE1":"1 51887U 22022AM  22146.91667824 -.00719835  00000-0 -16871-1 0  9994","RCS_SIZE":"LARGE","REF_FRAME":"TEME","ARG_OF_PERICENTER":"56.8443","CENTER_NAME":"EARTH","PERIOD":"93.271","OBJECT_NAME":"STARLINK-3551","RA_OF_ASC_NODE":"89.4546","MEAN_ANOMALY":"217.5640","OBJECT_TYPE":"PAYLOAD","EPHEMERIS_TYPE":"0"},{"MEAN_ELEMENT_THEORY":"SGP4","TIME_SYSTEM":"UTC","ELEMENT_SET_NO":"999","OBJECT_ID":"2022-022AN","SEMIMAJOR_AXIS":"6813.940","GP_ID":"204630214","MEAN_MOTION_DOT":"-0.00719510","SITE":"AFETR","MEAN_MOTION_DDOT":"0.0000000000000","BSTAR":"-0.01709200000000","PERIAPSIS":"434.890","COUNTRY_CODE":"US","FILE":"3466271","NORAD_CAT_ID":"51888","ECCENTRICITY":"0.00013420","APOAPSIS":"436.719","INCLINATION":"53.2175","CLASSIFICATION_TYPE":"U","REV_AT_EPOCH":"130","LAUNCH_DATE":"2022-03-03","EPOCH":"2022-05-26T22:00:00.999936","DECAY_DATE":null,"MEAN_MOTION":"15.43495408","TLE_LINE2":"2 51888  53.2175  89.4323 0001342  69.0072 197.8862 15.43495408  1306","OBJECT_NAME":"STARLINK-3536","OBJECT_TYPE":"PAYLOAD","EPHEMERIS_TYPE":"0","RA_OF_ASC_NODE":"89.4323","MEAN_ANOMALY":"197.8862","TLE_LINE1":"1 51888U 22022AN  22146.91667824 -.00719510  00000-0 -17092-1 0  9991","ARG_OF_PERICENTER":"69.0072","RCS_SIZE":"LARGE","REF_FRAME":"TEME","PERIOD":"93.295","CENTER_NAME":"EARTH"},{"PERIOD":"93.235","CENTER_NAME":"EARTH","TLE_LINE1":"1 51889U 22022AP  22146.91667824 -.00720259  00000-0 -16543-1 0  9994","ARG_OF_PERICENTER":"60.7001","RCS_SIZE":"LARGE","REF_FRAME":"TEME","EPHEMERIS_TYPE":"0","OBJECT_TYPE":"PAYLOAD","MEAN_ANOMALY":"224.2893","RA_OF_ASC_NODE":"89.4873","OBJECT_NAME":"STARLINK-3547","MEAN_MOTION":"15.44485560","TLE_LINE2":"2 51889  53.2176  89.4873 0001356  60.7001 224.2893 15.44485560 14440","DECAY_DATE":null,"EPOCH":"2022-05-26T22:00:00.999936","REV_AT_EPOCH":"1444","LAUNCH_DATE":"2022-03-03","CLASSIFICATION_TYPE":"U","INCLINATION":"53.2176","APOAPSIS":"433.816","ECCENTRICITY":"0.00013560","NORAD_CAT_ID":"51889","FILE":"3465954","COUNTRY_CODE":"US","PERIAPSIS":"431.968","BSTAR":"-0.01654300000000","MEAN_MOTION_DDOT":"0.0000000000000","GP_ID":"204600368","SEMIMAJOR_AXIS":"6811.027","SITE":"AFETR","MEAN_MOTION_DOT":"-0.00720259","OBJECT_ID":"2022-022AP","MEAN_ELEMENT_THEORY":"SGP4","ELEMENT_SET_NO":"999","TIME_SYSTEM":"UTC"},{"CENTER_NAME":"EARTH","PERIOD":"93.265","RCS_SIZE":"LARGE","TLE_LINE1":"1 51890U 22022AQ  22146.91667824 -.00583463  00000-0 -13577-1 0  9994","ARG_OF_PERICENTER":"68.6956","REF_FRAME":"TEME","RA_OF_ASC_NODE":"89.4646","MEAN_ANOMALY":"209.3825","OBJECT_TYPE":"PAYLOAD","EPHEMERIS_TYPE":"0","OBJECT_NAME":"STARLINK-3519","TLE_LINE2":"2 51890  53.2168  89.4646 0001478  68.6956 209.3825 15.43993377  1301","MEAN_MOTION":"15.43993377","EPOCH":"2022-05-26T22:00:00.999936","DECAY_DATE":null,"LAUNCH_DATE":"2022-03-03","REV_AT_EPOCH":"130","INCLINATION":"53.2168","CLASSIFICATION_TYPE":"U","APOAPSIS":"435.346","ECCENTRICITY":"0.00014780","NORAD_CAT_ID":"51890","COUNTRY_CODE":"US","PERIAPSIS":"433.333","FILE":"3466271","MEAN_MOTION_DDOT":"0.0000000000000","BSTAR":"-0.01357700000000","MEAN_MOTION_DOT":"-0.00583463","SITE":"AFETR","GP_ID":"204630320","SEMIMAJOR_AXIS":"6812.474","OBJECT_ID":"2022-022AQ","TIME_SYSTEM":"UTC","ELEMENT_SET_NO":"999","MEAN_ELEMENT_THEORY":"SGP4"},{"OBJECT_ID":"2022-022AR","MEAN_ELEMENT_THEORY":"SGP4","ELEMENT_SET_NO":"999","TIME_SYSTEM":"UTC","SEMIMAJOR_AXIS":"6810.445","GP_ID":"204630427","SITE":"AFETR","MEAN_MOTION_DOT":"-0.00720285","FILE":"3466271","PERIAPSIS":"431.410","COUNTRY_CODE":"US","BSTAR":"-0.01643200000000","MEAN_MOTION_DDOT":"0.0000000000000","APOAPSIS":"433.211","ECCENTRICITY":"0.00013220","NORAD_CAT_ID":"51891","REV_AT_EPOCH":"130","LAUNCH_DATE":"2022-03-03","CLASSIFICATION_TYPE":"U","INCLINATION":"53.2176","MEAN_MOTION":"15.44683506","TLE_LINE2":"2 51891  53.2176  89.4981 0001322  65.1223 223.2098 15.44683506  1308","DECAY_DATE":null,"EPOCH":"2022-05-26T22:00:00.999936","EPHEMERIS_TYPE":"0","OBJECT_TYPE":"PAYLOAD","MEAN_ANOMALY":"223.2098","RA_OF_ASC_NODE":"89.4981","OBJECT_NAME":"STARLINK-3549","PERIOD":"93.223","CENTER_NAME":"EARTH","ARG_OF_PERICENTER":"65.1223","TLE_LINE1":"1 51891U 22022AR  22146.91667824 -.00720285  00000-0 -16432-1 0  9993","RCS_SIZE":"LARGE","REF_FRAME":"TEME"},{"MEAN_MOTION_DDOT":"0.0000000000000","BSTAR":"-0.01665100000000","COUNTRY_CODE":"US","PERIAPSIS":"432.572","FILE":"3465955","NORAD_CAT_ID":"51892","ECCENTRICITY":"0.00013250","APOAPSIS":"434.377","TIME_SYSTEM":"UTC","ELEMENT_SET_NO":"999","MEAN_ELEMENT_THEORY":"SGP4","OBJECT_ID":"2022-022AS","MEAN_MOTION_DOT":"-0.00720077","SITE":"AFETR","SEMIMAJOR_AXIS":"6811.609","GP_ID":"204600877","OBJECT_NAME":"STARLINK-3587","RA_OF_ASC_NODE":"89.4763","MEAN_ANOMALY":"216.5871","OBJECT_TYPE":"PAYLOAD","EPHEMERIS_TYPE":"0","ARG_OF_PERICENTER":"64.9674","TLE_LINE1":"1 51892U 22022AS  22146.91667824 -.00720077  00000-0 -16651-1 0  9996","RCS_SIZE":"LARGE","REF_FRAME":"TEME","CENTER_NAME":"EARTH","PERIOD":"93.247","CLASSIFICATION_TYPE":"U","INCLINATION":"53.2175","LAUNCH_DATE":"2022-03-03","REV_AT_EPOCH":"1444","EPOCH":"2022-05-26T22:00:00.999936","DECAY_DATE":null,"TLE_LINE2":"2 51892  53.2175  89.4763 0001325  64.9674 216.5871 15.44287506 14449","MEAN_MOTION":"15.44287506"},{"PERIOD":"93.166","CENTER_NAME":"EARTH","TLE_LINE1":"1 51893U 22022AT  22146.92838717 -.00279685  00000-0 -59140-2 0  9994","RCS_SIZE":"LARGE","ARG_OF_PERICENTER":"161.7228","REF_FRAME":"TEME","EPHEMERIS_TYPE":"0","OBJECT_TYPE":"PAYLOAD","MEAN_ANOMALY":"198.3858","RA_OF_ASC_NODE":"89.4452","OBJECT_NAME":"STARLINK-3579","MEAN_MOTION":"15.45628629","TLE_LINE2":"2 51893  53.2131  89.4452 0002144 161.7228 198.3858 15.45628629 14514","DECAY_DATE":null,"EPOCH":"2022-05-26T22:16:52.651488","REV_AT_EPOCH":"1451","LAUNCH_DATE":"2022-03-03","CLASSIFICATION_TYPE":"U","INCLINATION":"53.2131","ECCENTRICITY":"0.00021440","APOAPSIS":"430.993","NORAD_CAT_ID":"51893","FILE":"3466271","PERIAPSIS":"428.074","COUNTRY_CODE":"US","BSTAR":"-0.00591400000000","MEAN_MOTION_DDOT":"0.0000000000000","GP_ID":"204630534","SEMIMAJOR_AXIS":"6807.669","SITE":"AFETR","MEAN_MOTION_DOT":"-0.00279685","OBJECT_ID":"2022-022AT","MEAN_ELEMENT_THEORY":"SGP4","ELEMENT_SET_NO":"999","TIME_SYSTEM":"UTC"},{"BSTAR":"-0.01632800000000","MEAN_MOTION_DDOT":"0.0000000000000","FILE":"3466271","PERIAPSIS":"430.814","COUNTRY_CODE":"US","NORAD_CAT_ID":"51894","ECCENTRICITY":"0.00013420","APOAPSIS":"432.642","ELEMENT_SET_NO":"999","TIME_SYSTEM":"UTC","MEAN_ELEMENT_THEORY":"SGP4","OBJECT_ID":"2022-022AU","SITE":"AFETR","MEAN_MOTION_DOT":"-0.00720585","SEMIMAJOR_AXIS":"6809.863","GP_ID":"204629986","OBJECT_NAME":"STARLINK-3595","MEAN_ANOMALY":"229.0177","RA_OF_ASC_NODE":"89.5087","EPHEMERIS_TYPE":"0","OBJECT_TYPE":"PAYLOAD","ARG_OF_PERICENTER":"62.5647","TLE_LINE1":"1 51894U 22022AU  22146.91667824 -.00720585  00000-0 -16328-1 0  9993","RCS_SIZE":"LARGE","REF_FRAME":"TEME","CENTER_NAME":"EARTH","PERIOD":"93.211","CLASSIFICATION_TYPE":"U","INCLINATION":"53.2176","LAUNCH_DATE":"2022-03-03","REV_AT_EPOCH":"130","DECAY_DATE":null,"EPOCH":"2022-05-26T22:00:00.999936","TLE_LINE2":"2 51894  53.2176  89.5087 0001342  62.5647 229.0177 15.44881611  1301","MEAN_MOTION":"15.44881611"},{"PERIOD":"93.188","CENTER_NAME":"EARTH","RCS_SIZE":"LARGE","TLE_LINE1":"1 51895U 22022AV  22146.91667824 -.00720865  00000-0 -16119-1 0  9993","ARG_OF_PERICENTER":"60.3394","REF_FRAME":"TEME","OBJECT_TYPE":"PAYLOAD","EPHEMERIS_TYPE":"0","RA_OF_ASC_NODE":"89.5287","MEAN_ANOMALY":"238.2396","OBJECT_NAME":"STARLINK-3594","MEAN_MOTION":"15.45268648","TLE_LINE2":"2 51895  53.2176  89.5287 0001351  60.3394 238.2396 15.45268648  1304","EPOCH":"2022-05-26T22:00:00.999936","DECAY_DATE":null,"REV_AT_EPOCH":"130","LAUNCH_DATE":"2022-03-03","INCLINATION":"53.2176","CLASSIFICATION_TYPE":"U","APOAPSIS":"431.511","ECCENTRICITY":"0.00013510","NORAD_CAT_ID":"51895","PERIAPSIS":"429.671","COUNTRY_CODE":"US","FILE":"3466271","MEAN_MOTION_DDOT":"0.0000000000000","BSTAR":"-0.01611900000000","SEMIMAJOR_AXIS":"6808.726","GP_ID":"204630092","MEAN_MOTION_DOT":"-0.00720865","SITE":"AFETR","OBJECT_ID":"2022-022AV","MEAN_ELEMENT_THEORY":"SGP4","TIME_SYSTEM":"UTC","ELEMENT_SET_NO":"999"},{"MEAN_ANOMALY":"183.2767","RA_OF_ASC_NODE":"91.1077","EPHEMERIS_TYPE":"0","OBJECT_TYPE":"PAYLOAD","OBJECT_NAME":"STARLINK-3593","CENTER_NAME":"EARTH","PERIOD":"93.160","TLE_LINE1":"1 51896U 22022AW  22146.58334491 -.00722976  00000-0 -15912-1 0  9993","REF_FRAME":"TEME","RCS_SIZE":"LARGE","ARG_OF_PERICENTER":"58.3296","LAUNCH_DATE":"2022-03-03","REV_AT_EPOCH":"1444","CLASSIFICATION_TYPE":"U","INCLINATION":"53.2175","TLE_LINE2":"2 51896  53.2175  91.1077 0001426  58.3296 183.2767 15.45734745 14447","MEAN_MOTION":"15.45734745","DECAY_DATE":null,"EPOCH":"2022-05-26T14:00:01.000224","FILE":"3465392","PERIAPSIS":"428.251","COUNTRY_CODE":"US","BSTAR":"-0.01591200000000","MEAN_MOTION_DDOT":"0.0000000000000","APOAPSIS":"430.193","ECCENTRICITY":"0.00014260","NORAD_CAT_ID":"51896","OBJECT_ID":"2022-022AW","ELEMENT_SET_NO":"999","TIME_SYSTEM":"UTC","MEAN_ELEMENT_THEORY":"SGP4","SITE":"AFETR","MEAN_MOTION_DOT":"-0.00722976","SEMIMAJOR_AXIS":"6807.357","GP_ID":"204564465"}];
